NORAD_CAT_ID,OBJECT_NAME,OBJECT_TYPE,EPOCH,MEAN_MOTION,ECCENTRICITY,INCLINATION,RA_OF_ASC_NODE,ARG_OF_PERICENTER,MEAN_ANOMALY,BSTAR,MEAN_MOTION_DOT,MEAN_MOTION_DDOT,TLE_LINE0,TLE_LINE1,TLE_LINE2,SEMIMAJOR_AXIS,PERIOD,APOGEE,PERIGEE,DECAYED
53294.0,STARLINK-4146,PAYLOAD,2024-06-04 18:40:14,15.0884136,0.0001262,53.2164,180.0998,87.9889,272.1248,0.00012754,1.743e-05,0.0,0 STARLINK-4146,1 53294U 22086BE  24156.77795027  .00001743  00000-0  12754-3 0  9990,2 53294  53.2164 180.0998 0001262  87.9889 272.1248 15.08841360104312,6917.876,95.437,540.614,538.868,0.0
53294.0,STARLINK-4146,PAYLOAD,2024-06-05 04:12:35,15.08826433,0.0001366,53.216,178.3156,95.2296,264.8852,-6.0897e-05,-1.257e-05,0.0,0 STARLINK-4146,1 53294U 22086BE  24157.17540665 -.00001257  00000-0 -60897-4 0  9995,2 53294  53.2160 178.3156 0001366  95.2296 264.8852 15.08826433104170,6917.922,95.438,540.732,538.842,0.0
53294.0,STARLINK-4146,PAYLOAD,2024-06-05 08:58:44,15.08827218,0.0001371,53.2163,177.4238,95.0747,265.0402,-5.047e-05,-1.091e-05,0.0,0 STARLINK-4146,1 53294U 22086BE  24157.37412744 -.00001091  00000-0 -50470-4 0  9995,2 53294  53.2163 177.4238 0001371  95.0747 265.0402 15.08827218104401,6917.919,95.438,540.733,538.836,0.0
53294.0,STARLINK-4146,PAYLOAD,2024-06-05 18:31:03,15.08832093,0.0001354,53.2164,175.6391,94.6267,265.488,-4.5e-05,-1.004e-05,0.0,0 STARLINK-4146,1 53294U 22086BE  24157.77156650 -.00001004  00000-0 -45000-4 0  9997,2 53294  53.2164 175.6391 0001354  94.6267 265.4880 15.08832093104462,6917.905,95.438,540.706,538.833,0.0
53294.0,STARLINK-4146,PAYLOAD,2024-06-06 05:38:45,15.08833822,0.0001331,53.2163,173.5574,94.7129,265.4015,2.7776e-07,-2.83e-06,0.0,0 STARLINK-4146,1 53294U 22086BE  24158.23524612 -.00000283  00000-0  27776-6 0  9995,2 53294  53.2163 173.5574 0001331  94.7129 265.4015 15.08833822104331,6917.899,95.438,540.685,538.844,0.0
53294.0,STARLINK-4146,PAYLOAD,2024-06-06 07:14:08,15.08834751,0.0001341,53.2163,173.2598,95.1577,264.9568,8.0548e-06,-1.6e-06,0.0,0 STARLINK-4146,1 53294U 22086BE  24158.30148567 -.00000160  00000-0  80548-5 0  9993,2 53294  53.2163 173.2598 0001341  95.1577 264.9568 15.08834751104549,6917.896,95.438,540.689,538.834,0.0
53294.0,STARLINK-4146,PAYLOAD,2024-06-07 00:43:22,15.08831662,0.0001265,53.2163,169.9884,99.5499,260.5636,0.00016292,2.305e-05,0.0,0 STARLINK-4146,1 53294U 22086BE  24159.03012501  .00002305  00000-0  16292-3 0  9997,2 53294  53.2163 169.9884 0001265  99.5499 260.5636 15.08831662104653,6917.906,95.438,540.646,538.896,0.0
53294.0,STARLINK-4146,PAYLOAD,2024-06-07 18:12:36,15.08843418,0.0001273,53.2163,166.7177,98.385,261.7286,0.00020053,2.905e-05,0.0,0 STARLINK-4146,1 53294U 22086BE  24159.75876013  .00002905  00000-0  20053-3 0  9998,2 53294  53.2163 166.7177 0001273  98.3850 261.7286 15.08843418104566,6917.87,95.437,540.616,538.854,0.0
53294.0,STARLINK-4146,PAYLOAD,2024-06-08 11:41:50,15.08858826,0.0001291,53.215,163.4466,96.6931,263.4208,0.00031729,4.768e-05,0.0,0 STARLINK-4146,1 53294U 22086BE  24160.48739374  .00004768  00000-0  31729-3 0  9999,2 53294  53.2150 163.4466 0001291  96.6931 263.4208 15.08858826104874,6917.823,95.436,540.581,538.795,0.0
53294.0,STARLINK-4146,PAYLOAD,2024-06-09 05:11:05,15.08843735,0.0001309,53.215,160.1746,98.7421,261.372,6.8788e-06,-1.78e-06,0.0,0 STARLINK-4146,1 53294U 22086BE  24161.21603789 -.00000178  00000-0  68788-5 0  9990,2 53294  53.2150 160.1746 0001309  98.7421 261.3720 15.08843735104785,6917.869,95.437,540.64,538.828,0.0
53294.0,STARLINK-4146,PAYLOAD,2024-06-09 09:57:15,15.0884059,0.0001241,53.2157,159.2836,87.1124,273.001,-5.6541e-05,-1.188e-05,0.0,0 STARLINK-4146,1 53294U 22086BE  24161.41475952 -.00001188  00000-0 -56541-4 0  9997,2 53294  53.2157 159.2836 0001241  87.1124 273.0010 15.08840590105013,6917.879,95.438,540.602,538.885,0.0
53294.0,STARLINK-4146,PAYLOAD,2024-06-09 16:18:47,15.08840748,0.0001227,53.2155,158.0944,86.0967,274.0166,-5.3678e-05,-1.142e-05,0.0,0 STARLINK-4146,1 53294U 22086BE  24161.67971905 -.00001142  00000-0 -53678-4 0  9992,2 53294  53.2155 158.0944 0001227  86.0967 274.0166 15.08840748105057,6917.878,95.438,540.592,538.894,0.0
53294.0,STARLINK-4146,PAYLOAD,2024-06-10 06:37:15,15.08848031,0.0001213,53.2167,155.4185,89.1914,270.9217,1.5935e-05,-3.4e-07,0.0,0 STARLINK-4146,1 53294U 22086BE  24162.27587625 -.00000034  00000-0  15935-4 0  9993,2 53294  53.2167 155.4185 0001213  89.1914 270.9217 15.08848031104941,6917.856,95.437,540.56,538.882,0.0
53294.0,STARLINK-4146,PAYLOAD,2024-06-10 16:09:34,15.08852019,0.0001243,53.2166,153.6341,87.8963,272.2171,2.5904e-05,1.25e-06,0.0,0 STARLINK-4146,1 53294U 22086BE  24162.67331145  .00000125  00000-0  25904-4 0  9998,2 53294  53.2166 153.6341 0001243  87.8963 272.2171 15.08852019105201,6917.844,95.437,540.569,538.849,0.0
53294.0,STARLINK-4146,PAYLOAD,2024-06-11 04:52:40,15.08831465,0.0001356,53.2169,151.2556,86.282,273.8327,9.7933e-05,1.271e-05,0.0,0 STARLINK-4146,1 53294U 22086BE  24163.20324459  .00001271  00000-0  97933-4 0  9992,2 53294  53.2169 151.2556 0001356  86.2820 273.8327 15.08831465105084,6917.906,95.438,540.71,538.833,0.0
53294.0,STARLINK-4146,PAYLOAD,2024-06-11 06:28:03,15.0883231,0.0001356,53.2169,150.9583,86.5361,273.5786,0.00010227,1.34e-05,0.0,0 STARLINK-4146,1 53294U 22086BE  24163.26948425  .00001340  00000-0  10227-3 0  9990,2 53294  53.2169 150.9583 0001356  86.5361 273.5786 15.08832310105292,6917.904,95.438,540.707,538.831,0.0
53294.0,STARLINK-4146,PAYLOAD,2024-06-12 06:18:50,15.08835933,0.0001446,53.2175,146.4983,88.0316,272.0841,3.7122e-05,3.03e-06,0.0,0 STARLINK-4146,1 53294U 22086BE  24164.26308644  .00000303  00000-0  37122-4 0  9996,2 53294  53.2175 146.4983 0001446  88.0316 272.0841 15.08835933105447,6917.893,95.438,540.758,538.757,0.0
53294.0,STARLINK-4146,PAYLOAD,2024-06-12 07:54:13,15.08836209,0.0001423,53.2177,146.2009,86.8945,273.221,3.7066e-05,3.02e-06,0.0,0 STARLINK-4146,1 53294U 22086BE  24164.32932639  .00000302  00000-0  37066-4 0  9996,2 53294  53.2177 146.2009 0001423  86.8945 273.2210 15.08836209105254,6917.892,95.438,540.741,538.773,0.0
53294.0,STARLINK-4146,PAYLOAD,2024-06-12 15:51:09,15.08841652,0.0001441,53.2179,144.7134,83.4608,276.6548,4.0199e-05,3.52e-06,0.0,0 STARLINK-4146,1 53294U 22086BE  24164.66052271  .00000352  00000-0  40199-4 0  9994,2 53294  53.2179 144.7134 0001441  83.4608 276.6548 15.08841652105504,6917.875,95.437,540.737,538.743,0.0
53294.0,STARLINK-4146,PAYLOAD,2024-06-13 06:09:37,15.08843226,0.0001482,53.2176,142.0368,85.3731,274.7431,0.00010114,1.322e-05,0.0,0 STARLINK-4146,1 53294U 22086BE  24165.25668107  .00001322  00000-0  10114-3 0  9992,2 53294  53.2176 142.0368 0001482  85.3731 274.7431 15.08843226105390,6917.871,95.437,540.761,538.71,0.0
53294.0,STARLINK-4146,PAYLOAD,2024-06-13 15:41:55,15.08846283,0.0001515,53.2177,140.2534,85.691,274.4256,0.00011145,1.486e-05,0.0,0 STARLINK-4146,1 53294U 22086BE  24165.65411800  .00001486  00000-0  11145-3 0  9998,2 53294  53.2177 140.2534 0001515  85.6910 274.4256 15.08846283105652,6917.861,95.437,540.774,538.678,0.0
53294.0,STARLINK-4146,PAYLOAD,2024-06-14 04:25:01,15.08836202,0.0001484,53.217,137.8716,98.1841,261.9319,5.7531e-05,6.28e-06,0.0,0 STARLINK-4146,1 53294U 22086BE  24166.18404642  .00000628  00000-0  57531-4 0  9990,2 53294  53.2170 137.8716 0001484  98.1841 261.9319 15.08836202105736,6917.892,95.438,540.784,538.73,0.0
53294.0,STARLINK-4146,PAYLOAD,2024-06-14 21:54:15,15.08842571,0.0001458,53.2166,134.6005,95.3816,264.7342,6.409e-05,7.32e-06,0.0,0 STARLINK-4146,1 53294U 22086BE  24166.91268280  .00000732  00000-0  64090-4 0  9991,2 53294  53.2166 134.6005 0001458  95.3816 264.7342 15.08842571105844,6917.873,95.437,540.746,538.729,0.0
53294.0,STARLINK-4146,PAYLOAD,2024-06-15 04:15:48,15.08843775,0.0001634,53.2171,133.4124,102.3613,257.7562,6.2667e-05,7.1e-06,0.0,0 STARLINK-4146,1 53294U 22086BE  24167.17764139  .00000710  00000-0  62667-4 0  9998,2 53294  53.2171 133.4124 0001634 102.3613 257.7562 15.08843775105886,6917.869,95.437,540.864,538.603,0.0
53294.0,STARLINK-4146,PAYLOAD,2024-06-15 15:23:29,15.08850174,0.0001483,53.2167,131.3303,100.0341,260.0819,9.3849e-05,1.206e-05,0.0,0 STARLINK-4146,1 53294U 22086BE  24167.64131466  .00001206  00000-0  93849-4 0  9998,2 53294  53.2167 131.3303 0001483 100.0341 260.0819 15.08850174105953,6917.849,95.437,540.74,538.688,0.0
53294.0,STARLINK-4146,PAYLOAD,2024-06-16 04:06:35,15.0883571,0.000157,53.2182,128.9534,100.8071,259.3098,2.7669e-05,1.52e-06,0.0,0 STARLINK-4146,1 53294U 22086BE  24168.17124646  .00000152  00000-0  27669-4 0  9995,2 53294  53.2182 128.9534 0001570 100.8071 259.3098 15.08835710106032,6917.894,95.438,540.845,538.672,0.0
53294.0,STARLINK-4146,PAYLOAD,2024-06-17 21:26:37,15.08830902,0.0001425,53.2189,121.222,99.4168,260.6985,2.5656e-05,1.2e-06,0.0,0 STARLINK-4146,1 53294U 22086BE  24169.89349093  .00000120  00000-0  25656-4 0  9999,2 53294  53.2189 121.2220 0001425  99.4168 260.6985 15.08830902106090,6917.908,95.438,540.759,538.787,0.0
53294.0,STARLINK-4146,PAYLOAD,2024-06-18 13:20:28,15.0884115,0.0001456,53.2192,118.2517,106.5646,253.5506,0.00010019,1.307e-05,0.0,0 STARLINK-4146,1 53294U 22086BE  24170.55588406  .00001307  00000-0  10019-3 0  9991,2 53294  53.2192 118.2517 0001456 106.5646 253.5506 15.08841150106192,6917.877,95.437,540.749,538.735,0.0
53294.0,STARLINK-4146,PAYLOAD,2024-06-18 19:42:01,15.08836848,0.000152,53.2192,117.0643,111.9753,248.1401,8.732e-05,1.102e-05,0.0,0 STARLINK-4146,1 53294U 22086BE  24170.82084748  .00001102  00000-0  87320-4 0  9994,2 53294  53.2192 117.0643 0001520 111.9753 248.1401 15.08836848106439,6917.89,95.438,540.807,538.704,0.0
53294.0,STARLINK-4146,PAYLOAD,2024-06-19 03:38:57,15.08828117,0.000142,53.2191,115.5757,104.7118,255.4032,1.4226e-05,-6.2e-07,0.0,0 STARLINK-4146,1 53294U 22086BE  24171.15205736 -.00000062  00000-0  14226-4 0  9993,2 53294  53.2191 115.5757 0001420 104.7118 255.4032 15.08828117106285,6917.917,95.438,540.764,538.799,0.0
